address,address2,city,postal_code,country
1745 T Street Southeast,,Washington,20020,United States
6007 Applegate Lane,,Louisville,40219,United States
560 Penstock Drive,,Grass Valley,95945,United States
150 Carter Street,,Manchester,6040,United States
2721 Lindsay Avenue,,Louisville,40206,United States
18 Densmore Drive,,Essex,5452,United States
637 Britannia Drive,,Vallejo,94591,United States
5601 West Crocus Drive,,Glendale,85306,United States
5403 Illinois Avenue,,Nashville,37209,United States
8821 West Myrtle Avenue,,Glendale,85305,United States
2203 7th Street Road,,Louisville,40208,United States
6463 Vrain Street,,Arvada,80003,United States
87 Horseshoe Drive,,West Windsor,5037,United States
60 Desousa Drive,,Manchester,6040,United States
4 Old Colony Way,,Yarmouth,2664,United States
314 South 17th Street,,Nashville,37206,United States
1649 Timberridge Court,,Fayetteville,72704,United States
5461 West Shades Valley Drive,,Montgomery,36108,United States
629 Debbie Drive,,Nashville,37076,United States
22572 Toreador Drive,,Salinas,93908,United States
3034 Mica Street,,Fayetteville,72704,United States
3729 East Mission Boulevard,,Fayetteville,72703,United States
5114 Greentree Drive,,Nashville,37211,United States
3466 Southview Avenue,,Montgomery,36111,United States
1513 Cathy Street,,Savannah,31415,United States
600 West 19th Avenue,APT B,Anchorage,99503,United States
1208 Elkader Court North,,Nashville,37013,United States
210 Green Road,,Manchester,6042,United States
49548 Road 200,,O'Neals,93645,United States
81 Seaton Place Northwest,,Washington,20001,United States
1267 Martin Street,#203,Nashville,37203,United States
7431 Candace Way,#1,Louisville,40214,United States
1407 Walden Court,,Crofton,21114,United States
5906 Milton Avenue,,Deale,20751,United States
74 Springfield Street,B,Agawam,1001,United States
2905 Stonebridge Court,,Norman,73071,United States
20930 Todd Valley Road,,Foresthill,95631,United States
5928 West Mauna Loa Lane,,Glendale,85306,United States
802 Madison Street Northwest,,Washington,20011,United States
2811 Battery Place Northwest,,Washington,20016,United States
210 Lacross Lane,,Westmore,5860,United States
2010 Rising Hill Drive,,Norman,73071,United States
388 East Main Street,,Middlebury,5753,United States
450 Kinhawk Drive,,Nashville,37211,United States
131 Westerly Street,,Manchester,6042,United States
308 Woodleaf Court,,Glen Burnie,21061,United States
8502 Madrone Avenue,,Louisville,40258,United States
23 Sable Run Lane,,Methuen,1844,United States
716 Waller Road,,Brentwood,37027,United States
416 McIver Street,,Nashville,37211,United States
1508 Massachusetts Avenue Southeast,,Washington,20003,United States
5615 West Villa Maria Drive,,Glendale,85308,United States
3162 Martin Luther King Junior Boulevard,#2,Fayetteville,72704,United States
5306 Ritchie Highway,,Baltimore,21225,United States
109 Summit Street,,Burlington,5401,United States
816 West 19th Avenue,,Anchorage,99503,United States
172 Alburg Springs Road,,Alburgh,5440,United States
159 Downey Drive,A,Manchester,6040,United States
125 John Street,,Santa Cruz,95060,United States
1101 Lotus Avenue,,Glen Burnie,21061,United States
8376 Albacore Drive,,Pasadena,21122,United States
491 Arabian Way,,Grand Junction,81504,United States
12245 West 71st Place,,Arvada,80004,United States
80 North East Street,#4,Holyoke,1040,United States
4695 East Huntsville Road,,Fayetteville,72701,United States
310 Timrod Road,,Manchester,6040,United States
1364 Capri Drive,,Panama City,32405,United States
132 Laurel Green Court,,Savannah,31419,United States
6657 West Rose Garden Lane,,Glendale,85308,United States
519 West 75th Avenue,#APT 000003,Anchorage,99518,United States
31353 Santa Elena Way,,Union City,94587,United States
8398 West Denton Lane,,Glendale,85305,United States
700 Winston Place,,Anchorage,99504,United States
232 Maine Avenue,,Panama City,32401,United States
1 Kempf Drive,,Easton,2375,United States
5811 Crossings Boulevard,,Nashville,37013,United States
5108 Franklin Street,,Savannah,31405,United States
913 Fallview Trail,,Nashville,37211,United States
270 Chrissy's Court,,,5443,United States
130 Old Route 103,,Chester,5143,United States
10826 Pointe Royal Drive,,Bakersfield,93311,United States
74 Ranch Drive,,Montgomery,36109,United States
6601 West Ocotillo Road,,Glendale,85301,United States
19416 Barclay Road,,Castro Valley,94546,United States
1347 Blackwalnut Court,,Annapolis,21403,United States
1770 Colony Way,,Fayetteville,72704,United States
165 Saint John Street,,Manchester,6040,United States
2409 Research Boulevard,,Fort Collins,80526,United States
1903 Bashford Manor Lane,,Louisville,40218,United States
8315 Surf Drive,,Panama City Beach,32408,United States
3301 Old Muldoon Road,,Anchorage,99504,United States
8800 Cordell Circle,#APT 000003,Anchorage,99502,United States
117 East Cook Avenue,,Anchorage,99501,United States
6231 North 67th Avenue,#241,Glendale,85301,United States
8505 Waters Avenue,#66,Savannah,31406,United States
7 Underwood Place Northwest,,Washington,20012,United States
21950 Arnold Center Road,,Carson,90810,United States
1427 South Carolina Avenue Southeast,,Washington,20003,United States
1420 Turtleback Trail,,Panama City,32413,United States
6990 Pierson Street,,Arvada,80004,United States
376 North Williams Drive,,Fayetteville,72701,United States
3617 Menlo Court,,Montgomery,36116,United States
711 Parker Street,,East Longmeadow,1028,United States
8521 Crystal Street,,Anchorage,99502,United States
1622 Edgar D Nixon Avenue,,Montgomery,36104,United States
1608 Gales Street Northeast,,Washington,20002,United States
122 East Hayes Street,,Norman,73069,United States
5144 Cattail Court,,Fayetteville,72701,United States
131 Kent Drive,,Manchester,6042,United States
2313 Vegas Avenue,,Castro Valley,94546,United States
5420 Sunset Avenue,,Panama City Beach,32408,United States
242 North Ash Street,,Fruita,81521,United States
38676 Greenwich Circle,,Fremont,94536,United States
2426 East Onyx Trail,#6,Fayetteville,72701,United States
110 Seaton Place Northwest,,Washington,20001,United States
5385 Iris Street,,Arvada,80002,United States
5628 West Tonopah Drive,,Glendale,85308,United States
65 Bay Drive,,Annapolis,21403,United States
7401 North 61st Drive,,Glendale,85301,United States
8 Watkins Road,,,5468,United States
2209 June Drive,,Nashville,37214,United States
1840 Nobel Place,,Louisville,40216,United States
2622 Martin Luther King Junior Boulevard,,Fayetteville,72704,United States
4 Glen Circle,,Glen Burnie,21060,United States
7529 West 72nd Avenue,#4,Arvada,80003,United States
10996 Largo Drive,,Savannah,31419,United States
2027 North Shannon Drive,#5,Fayetteville,72703,United States
154 Boca Lagoon Drive,,Panama City Beach,32408,United States
3311 Wiley Post Loop,,Anchorage,99517,United States
5055 West 58th Avenue,,Arvada,80002,United States
3228 Chettenham Drive,,Rancho Cordova,95670,United States
1901 North Midwest Boulevard,,Edmond,73034,United States
1536 North Main Street,,Salinas,93906,United States
33 Linscott Road,,Hingham,2043,United States
1732 27th Avenue,,Oakland,94601,United States
22 Gallatin Street Northeast,,Washington,20011,United States
8125 Glynnwood Drive,,Montgomery,36117,United States
2139 Glynnwood Drive,,Savannah,31404,United States
14 School Street,,Medway,2053,United States
264 Crest Drive,,Soldotna,99669,United States
307 Joel Street,,Pooler,31322,United States
188 River Road,,Essex,5452,United States
1643 Oxford Street,R C,Berkeley,94709,United States
5545 Saddlewood Lane,,Brentwood,37027,United States
26466 Mockingbird Lane,,Hayward,94544,United States
4840 Reservoir Road Northwest,,Washington,20007,United States
599 Cambridge Street,#303,Cambridge,2141,United States
584 Rural Hill Road,,Nashville,37217,United States
10262 West 59th Avenue,#1,Arvada,80004,United States
945 South 5th Street,#1020,Louisville,40203,United States
2543 The Meadows,,Montgomery,36116,United States
153 Atlantic Avenue,#6,Salisbury,1952,United States
9 Brooklyn Street,,,5488,United States
5722 8th Street Northwest,,Washington,20011,United States
8700 Seaton Boulevard,,Montgomery,36116,United States
1004 Bellflower Street,,Livermore,94551,United States
4738 Mallard Common,,Fremont,94555,United States
875 Latouche Street,#APT 001010,Anchorage,99501,United States
4940 Fuller Road,,Montgomery,36110,United States
5754 Belleau Drive,,Montgomery,36117,United States
1403 Lincoln Street,,Savannah,31401,United States
140 South Hill Avenue,#305,Fayetteville,72701,United States
642 South 2nd Street,#608,Louisville,40202,United States
6473 Zephyr Street,,Arvada,80004,United States
4250 North Valley Lake Drive,#8,Fayetteville,72703,United States
565 North Lakeshore Drive,,Panama City Beach,32413,United States
5514 West Wedington Drive,#3,Fayetteville,72704,United States
1909 Wainwright Avenue,,Panama City,32405,United States
4525 West Frier Drive,,Glendale,85301,United States
201 West Montgomery Cross Road,#170,Savannah,31406,United States
915 Heath Drive,,Montgomery,36108,United States
95 Briarwood Drive,,Manchester,6040,United States
69 Washington Street,,Manchester,6042,United States
2900 North Western Avenue,,Edmond,73012,United States
7841 West Kristal Way,,Glendale,85308,United States
361 Parmley Lane,,Nashville,37207,United States
6120 Southeast 84th Street,,Oklahoma City,73135,United States
9428 North 65th Drive,,Glendale,85302,United States
11 Meeting Place Circle,,Boxford,1921,United States
4438 Maine Avenue,,Baldwin Park,91706,United States
65 Jones Lane,,Montevallo,35115,United States
3140 Commander Drive,,Louisville,40220,United States
107 Guaymas Place,,Davis,95616,United States
6114 West Glenn Drive,#1,Glendale,85301,United States
622 Thomas Street,,Woodland,95776,United States
127 Grand Heron Drive,,Panama City,32407,United States
3504 East 16th Avenue,,Anchorage,99508,United States
1230 Stafford Drive,,Montgomery,36117,United States
6007 Yarrow Street,H,Arvada,80004,United States
632 Belmar Drive,,Edmond,73025,United States
1515 Chandlee Avenue,,Panama City,32405,United States
10632 Admiral Court,,Oklahoma City,73162,United States
11655 West 81st Avenue,,Arvada,80005,United States
3500 Blanchard Drive Southwest,,Washington,20032,United States
2755 Country Drive,#244,Fremont,94536,United States
1850 Berryhill Place,,Montgomery,36117,United States
58 North U.S.A Drive,,Fayetteville,72701,United States
8785 Ellis Court,,Arvada,80005,United States
1636 Briarview Court,,Severn,21144,United States
12 Knox Street,,Manchester,6040,United States
425 Middle Turnpike East,,Manchester,6040,United States
2017 North Hartford Drive,,Fayetteville,72701,United States
5900 Upland Road,,Brooklyn Park,21225,United States
9331 Edison Road,,Lithia,33547,United States
1810 Orchard Place,,Anchorage,99502,United States
145 Grau Drive,,Fremont,94536,United States
3959 Fairlands Drive,,Pleasanton,94588,United States
3613 East 18th Avenue,,Anchorage,99508,United States
1275 South Holland Drive,,Fayetteville,72704,United States
109 Cambridge Station Road,,Louisville,40223,United States
2107 Elfen Glen,Apt B,Van Buren,72956,United States
8522 Ingalls Circle,,Arvada,80003,United States
1809 Cedar Drive,,Severn,21144,United States
1376 Oakland Avenue,#1,Fayetteville,72703,United States
4306 Bylsma Circle,,Panama City,32404,United States
233 Buckland Hills Drive,,Manchester,6042,United States
7701 Southwest 104th Street,,Oklahoma City,73169,United States
14003 Crossbranch Court,,Louisville,40245,United States
19590 East Batavia Drive,,Aurora,80011,United States
6424 Simms Street,#71,Arvada,80004,United States
718 Dutchmans Court,,Nashville,37076,United States
8496 Isles Court,,Pasadena,21122,United States
100 East Joyce Boulevard,#110,Fayetteville,72703,United States
9036 Calico Court,,Hesperia,92344,United States
2723 East Joyce Boulevard,,Fayetteville,72703,United States
90 Via Verde,,San Lorenzo,94580,United States
1015 Castle Road,,Edmond,73034,United States
2787 West Blackstone Crossing,,Fayetteville,72704,United States
3555 Alamosa Drive,,Anchorage,99502,United States
6231 North 59th Avenue,#35,Glendale,85301,United States
311 South Panama Street,,Montgomery,36107,United States
3313 Daisy Trail,,Nashville,37013,United States
5436 Dorbrandt Street,#APT 000002,Anchorage,99518,United States
553 South Arlington Road,,Orange,92869,United States
615 Q Street Northwest,,Washington,20001,United States
457 Mountain Village Boulevard,#320-3,Mountain Village,81435,United States
144 Lauderdale Street,,Montgomery,36116,United States
2 Ambelwood Way,,Savannah,31411,United States
4113 Holiday Drive,,Panama City,32408,United States
2001 Van Hoose Drive,,Fayetteville,72701,United States
9457 Winfield Place,,Montgomery,36117,United States
1120 Mitchell Young Road,,Montgomery,36108,United States
12816 West 65th Way,,Arvada,80004,United States
10 Erick Road,#47,Mansfield,2048,United States
481 East Redbud Lane,,Fayetteville,72703,United States
320 Northwest 22nd Street,,Oklahoma City,73103,United States
33 South Hill Avenue,#306,Fayetteville,72701,United States
355 Gillette Road,,Nashville,37211,United States
151 Main Street,,Savannah,31408,United States
545 Tracey Drive,,Panama City,32404,United States
3 Southerberry Drive,,,5468,United States
736 Sicard Street Southeast,,Washington,20003,United States
6214 Herzog Street,,Oakland,94608,United States
1160 North College Avenue,#2,Fayetteville,72703,United States
5843 West McLellan Road,,Glendale,85301,United States
1452 55th Avenue,B,Oakland,94621,United States
4255 Tanager Common,,Fremont,94555,United States
13426 West Rovey Avenue,,Litchfield Park,85340,United States
195 Nursery Street,#D10,Springfield,1104,United States
126 Marjorie Lane,C,Manchester,6042,United States
22 Charnock Street,#2,Beverly,1915,United States
817 25th Street Northwest,,Washington,20037,United States
2552 Massachusetts Avenue Northwest,,Washington,20008,United States
1711 Lore Road,#APT 000106,Anchorage,99507,United States
19091 Northeast 23rd Street,,Harrah,73045,United States
8318 North 57th Drive,,Glendale,85302,United States
7256 West 84th Way,#918,Arvada,80003,United States
706 Seagrove Road,,Glen Burnie,21060,United States
2318 Camryns Crossing,,Panama City,32405,United States
968 Virginia Avenue,,Olivehurst,95961,United States
416 South University Boulevard,,Norman,73069,United States
137 Gazebo East Drive,,Montgomery,36117,United States
10723 Colonial Woods Court,,Louisville,40223,United States
119 Matthew Lane,,Nashville,37215,United States
3142 West Finger Road,,Fayetteville,72701,United States
4 Elm Street,,Windsor,5089,United States
78 School Street,,Woburn,1801,United States
19020 North 68th Avenue,,Glendale,85308,United States
2849 Quail Drive,,Fayetteville,72704,United States
2456 22nd Avenue,,Greeley,80631,United States
200 Boulder Road,,Manchester,6040,United States
11150 Sun Valley Drive,,Oakland,94605,United States
505 Southeast 32nd Street,,Oklahoma City,73129,United States
1025 West 19th Street,#UNIT 1-C,Panama City,32405,United States
6725 Pamela Court,,Montgomery,36116,United States
4714 Narrow Lane Road,,Montgomery,36116,United States
11 Proctor Circle,,Peabody,1960,United States
10508 Kovats Court,,Louisville,40223,United States
3179 18th Street Northwest,,Washington,20010,United States
3194 Bladensburg Road Northeast,,Washington,20018,United States
260 Rio Del Mar Boulevard,##14,Aptos,95003,United States
1040 West 27th Avenue,#APT 000401,Anchorage,99503,United States
42 Lake Lane,,Westmore,5860,United States
3718 Bay Tree Road,,Lynn Haven,32444,United States
3408 Bellisima Place,#204,Louisville,40245,United States
4109 General Bate Drive,,Nashville,37204,United States
5329 A Street,,Greeley,80634,United States
88 Shute Street,#1,Everett,2149,United States
480 Keene Road,,Walden,5836,United States
4 Cutting Avenue,,Worcester,1606,United States
275 South 40th Street,,Boulder,80305,United States
1189 Northwest End Avenue,#D3,Fayetteville,72703,United States
25 Cliffside Drive,D,Manchester,6042,United States
2515 60th Avenue,,Oakland,94605,United States
2057 Lucas Street,,Montgomery,36107,United States
386 Daniels Road,,New Haven,5472,United States
9805 Meadow Vale Drive,,Louisville,40242,United States
8 Village Circle,,Randolph,5060,United States
1011 San Jose Street,,San Leandro,94577,United States
2505 Walker Lane,,Nashville,37207,United States
11225 West 79th Drive,,Arvada,80005,United States
1907 18th Avenue South,,Nashville,37212,United States
16 Conway Street,,Shelburne Falls,1370,United States
20375 Wisteria Street,,Castro Valley,94546,United States
6408 Fern Crest Road,,Louisville,40291,United States
175 Creek Road,,Castleton,5735,United States
2531 Prestwick Avenue,,Concord,94519,United States
1002 Highland Avenue,,Louisville,40204,United States
2927 Leatherwood Drive,,Nashville,37214,United States
8467 Chase Drive,,Arvada,80003,United States
8556 Nelson Court,,Arvada,80005,United States
122 Summer Street,#1,Medford,2155,United States
12061 Johns Road,#APT 000002,Anchorage,99515,United States
8358 WB&A Road,,Severn,21144,United States
43 Henderson Avenue,,Savannah,31406,United States
347 Brewer Drive,,Nashville,37211,United States
2765 North Barcelona Avenue,,Fayetteville,72703,United States
5311 Chenoweth Park Lane,,Louisville,40291,United States
6398 Jellison Way,,Arvada,80004,United States
604 Northwest 118th Street,,Oklahoma City,73114,United States
37 Rushforde Drive,,Manchester,6040,United States
5434 West Beck Lane,,Glendale,85306,United States
1516 Ringe Drive,,Severn,21144,United States
3701 Lake Towne Drive,,Nashville,37013,United States
20250 North 67th Avenue,#2143,Glendale,85308,United States
62 Prospect Avenue,#1,Quincy,2170,United States
25 Morton Street,#216,Quincy,2169,United States
8202 4 Winds Drive,#3,Lyndon,40222,United States
513 Habberton Road,,Fayetteville,72703,United States
1960 Sigfrid Court,,Annapolis,21401,United States
663 Chesapeake Way,#1,Fayetteville,72701,United States
3354 Wilmington Road,,Montgomery,36105,United States
8529 Old Harding Lane,,Nashville,37221,United States
22219 Panama City Beach Parkway,,Panama City Beach,32413,United States
37 East Broad Street,,Savannah,31401,United States
1309 Columbia Road Northwest,,Washington,20009,United States
1211 Castine Court,,Pasadena,21122,United States
906 West Berry Street,#204,Fayetteville,72701,United States
341 Oakland Street,,Manchester,6042,United States
60 Downey Drive,,Manchester,6040,United States
3770 North Front Street,,Fayetteville,72703,United States
25 Church Street,A,Pittsfield,1201,United States
6578 Marauder Drive,,Nashville,37209,United States
2747 68th Avenue,,Oakland,94605,United States
95 Woods Hill Road,,,5488,United States
35 Keach Avenue,,Worcester,1607,United States
1822 North Grand Avenue,,Pueblo,81003,United States
1809 U.S. 80,,Savannah,31408,United States
5065 North 54th Avenue,#8,Glendale,85301,United States
1261 Steamboat Drive,#3,Fayetteville,72704,United States
1695 Archer Street,,Savannah,31405,United States
3904 October Woods Drive,,Nashville,37013,United States
1223 Delaware Avenue,,Deale,20733,United States
10383 Eagle River Lane,,Anchorage,99577,United States
1314 89th Avenue,,Oakland,94621,United States
21 Longview Bluff Drive East,,Savannah,31419,United States
1689 Fisher Pond Road,,Saint Albans City,5478,United States
9920 West 81st Avenue,,Arvada,80005,United States
2732 Rosedale Place,,Nashville,37211,United States
10881 Northforde Drive,,Cupertino,95014,United States
926 Mill Court,,Savannah,31419,United States
7550 Kline Drive,,Arvada,80005,United States
5688 Johnson Court,,Arvada,80002,United States
4439 Gale Street,,Livermore,94550,United States
6450 West Bethany Home Road,,Glendale,85301,United States
2931 Shady Oaks Drive,,Evans,80620,United States
6451 West Bell Road,#1144,Glendale,85308,United States
644 West Maple Street,#2,Fayetteville,72701,United States
1219 North Storer Avenue,#66,Fayetteville,72703,United States
152 Holly Court,,Mountain View,94043,United States
6086 Kennedy Drive,,Fayetteville,72704,United States
2300 Deer Path Circle,#207,Hurstbourne Acres,40220,United States
802 East 37th Street,,Savannah,31401,United States
5821 Taft Street,,Arvada,80004,United States
188 Saint Matthews Avenue,#1,Louisville,40207,United States
68 Hampstead Place,,Athol,1331,United States
3164 West Woodfield Way,,Fayetteville,72704,United States
7998 Chase Circle,#1,Arvada,80003,United States
1797 Pasatiempo Drive,,Chico,95928,United States
3722 Kisling Loop,,Tyndall Air Force Base,32403,United States
429 Patterson Street,,Nashville,37211,United States
6140 Fenton Street,,Arvada,80003,United States
7404 West Crest Lane,,Glendale,85310,United States
7841 North 59th Lane,#G37,Glendale,85301,United States
8043 Cranberry Street,#APT 000001,Anchorage,99502,United States
173 Spruce Street,#18,Manchester,6040,United States
4712 Cherokee Heights Road,,Panama City,32404,United States
915 Sacramento Street,,Bakersfield,93305,United States
317 Windsor Road,,Savannah,31419,United States
1332 Maple Street,,Montgomery,36108,United States
4709 Blagden Terrace Northwest,,Washington,20011,United States
5102 Ander Drive,,Brentwood,37027,United States
6754 Field Street,,Arvada,80004,United States
2347 Glen Eagle Drive,,Northfield,40222,United States
1613 Maple Timber Court,,Nashville,37013,United States
269 Park Street,#1,North Reading,1864,United States
6444 North 67th Avenue,#1081,Glendale,85301,United States
11 Pine Point Road,,Duxbury,2332,United States
4136 East Virginia Lane,,Montgomery,36116,United States
5740 North 59th Avenue,#1156,Glendale,85301,United States
95 Central Street,A,Springfield,1105,United States
74 Heard Street,#1,Chelsea,2150,United States
2500 Snowdoun Chambers Road,,Montgomery,36105,United States
429 Dennison Ridge Drive,,Manchester,6040,United States
1208 Lindenwood Drive,,Panama City,32405,United States
7609 Doris Place,,Oklahoma City,73162,United States
1915 Southeast 29th Street,,Oklahoma City,73129,United States
212 Holiday Circle,,Savannah,31419,United States
32 Amsden Street,#1,Arlington,2474,United States
4016 Doane Street,,Fremont,94538,United States
8700 Lillington Circle,,Montgomery,36117,United States
7720 Allison Street,#105,Arvada,80005,United States
17878 Front Beach Road,#C-2,Panama City Beach,32413,United States
1328 Tuckerman Street Northwest,,Washington,20011,United States
4600 East Huntsville Road,,Fayetteville,72701,United States
5038 North Cimarron Drive,,Beverly Hills,34465,United States
1216 West Hill Street,M,Louisville,40210,United States
3033 Aubert Avenue,,Louisville,40206,United States
17020 West 64th Drive,,Arvada,80007,United States
12420 West Montebello Avenue,,Litchfield Park,85340,United States
2538 East 40th Plaza,,Panama City,32405,United States
827 10th Street Northeast,,Washington,20002,United States
5912 North 48th Avenue,,Glendale,85301,United States
37 Fieldside Drive,,Groton,6340,United States
9176 Ellis Way,,Arvada,80005,United States
5370 Business Park Drive,,Montgomery,36116,United States
1612 Beech Street,,Louisville,40211,United States
8532 Ingalls Circle,,Arvada,80003,United States
7941 Alpine View Circle,,Anchorage,99507,United States
8595 West 81st Drive,,Arvada,80005,United States
4296 North Blossom Court,,Fayetteville,72703,United States
1738 Annabellas Drive,,Panama City Beach,32407,United States
3215 Madsen Street,,Hayward,94541,United States
4 Village Lake Drive,#4,Fayetteville,72703,United States
86 Russell Street,,Manchester,6040,United States
570 Broadway,,Lynnfield,1940,United States
1405 Monroe Street Northeast,,Washington,20017,United States
900 North Leverett Avenue,#126,Fayetteville,72701,United States
222 Quince Street,#2-B,San Diego,92103,United States
370 Wallace Road,#D-28,Nashville,37211,United States
6672 Urban Court,,Arvada,80004,United States
516 Southwest 60th Terrace,,Oklahoma City,73139,United States
1513 Southeast 9th Street,,Moore,73160,United States
154 Byrd Drive,,Panama City,32404,United States
1106 Homer Avenue,,Savannah,31405,United States
1010 M Street Northwest,,Washington,20001,United States
5420 Allison Street,#202,Arvada,80002,United States
20 Hacker Street,#3,Worcester,1603,United States
732 Kevin Court,,Oakland,94621,United States
509 Franklin Street Northeast,,Washington,20017,United States
23 Whitcomb Street,,Springfield,5156,United States
3377 Sandstone Court,,Pleasanton,94588,United States
14 Huntington Street,,Manchester,6040,United States
2802 US Highway 98,BLDG F,Mexico Beach,32456,United States
412 Virginia Avenue,,Louisville,40222,United States
1644 New Jersey Avenue Northwest,,Washington,20001,United States
832 51st Street Northeast,,Washington,20019,United States
894 Windmill Park Lane,,Mountain View,94043,United States
9636 Morar Road,,Panama City,32409,United States
9472 Noble Way,,Arvada,80007,United States
618 Staley Avenue,,Hayward,94541,United States
8704 Bayberry Place,,Plantation,40242,United States
2506 West Madison Street,,Louisville,40211,United States
840 Inglewood Drive,,West Sacramento,95605,United States
10 Dalry Lane,,Savannah,31419,United States
3301 Nora Lane,,Louisville,40220,United States
8304 Glaser Lane,,Louisville,40291,United States
3720 West 86th Avenue,APT F,Anchorage,99502,United States
3298 Chestnut Street Northwest,,Washington,20015,United States
82 Fairfield Street,,Manchester,6040,United States
3138 P Street Northwest,,Washington,20007,United States
80 Locust Avenue,#110,Worcester,1604,United States
2715 Thornbrook Court,,Odenton,21113,United States
3579 2nd Avenue,,Edgewater,21037,United States
6739 Taft Court,,Arvada,80004,United States
1528 Stafford Avenue,,Hayward,94541,United States
2024 Merrily Drive,,Montgomery,36111,United States
2034 Fairfax Road,,Annapolis,21401,United States
1430 East Audubon Road,,Montgomery,36111,United States
3652 East Blue Stone Drive,,Fayetteville,72764,United States
3302 Woodland Park Drive,#APT 000001,Anchorage,99517,United States
1771 Daisey Court,,Millersville,21108,United States
406 East Waldburg Street,,Savannah,31401,United States
11843 North 60th Avenue,,Glendale,85304,United States
9515 West 74th Avenue,,Arvada,80005,United States
119 Antioch Pike,,Nashville,37211,United States
1157 1st Street Northwest,,Washington,20001,United States
3578 Galindo Street,,Oakland,94601,United States
12800 Saunders Road,,Anchorage,99516,United States
5556 West Northview Avenue,,Glendale,85301,United States
3617 Oak Grove Circle,,Montgomery,36116,United States
2443 Sierra Nevada Road,#N5,Mammoth Lakes,93546,United States
10124 Watsonville Road,,Louisville,40272,United States
2441 Chase Park Drive,,Montgomery,36110,United States
28 Wayne Avenue,,Waltham,2453,United States
3605 Normandy Place South,,Nashville,37209,United States
25538 Calaroga Avenue,,Hayward,94545,United States
1521 159th Avenue,,San Leandro,94578,United States
344 Island Road,,Savannah,31406,United States
826 South Hancock Street,,Louisville,40203,United States
2212 Greenville Street,,Montgomery,36107,United States
325 East 7th Street,,Edmond,73034,United States
7 Maple Hill Road,,Aquinnah,2535,United States
73455 Twentynine Palms Highway,,Twentynine Palms,92277,United States
410 West 89th Avenue,,Anchorage,99515,United States
24147 Clinton Court,,Hayward,94545,United States
5620 Lilly Street,,Panama City,32404,United States
207 Spruce Street,,Manchester,6040,United States
236 Alden Road,,Hayward,94541,United States
467 North Mountain Ranch Road,,Fayetteville,72704,United States
2042 High Street,,Oakland,94601,United States
6244 Sun River Drive,,Sacramento,95824,United States
8801 Rosshire Drive,,Louisville,40118,United States
449 15th Street Northeast,,Washington,20002,United States
4385 Wares Ferry Road,,Montgomery,36109,United States
8546 North 59th Lane,#171,Glendale,85302,United States
8262 Elvaton Road,,Millersville,21108,United States
7018 Russell Court,,Arvada,80007,United States
1353 West 27th Avenue,#APT 000004,Anchorage,99503,United States
1030 Lake Claire Drive,,Annapolis,21409,United States
10980 Splendor Loop,,Anchorage,99577,United States
36043 Soapberry Commons,,Fremont,94536,United States
419 Wabasso Avenue,,Louisville,40209,United States
2098 Lower Newton Street,,Saint Albans City,5478,United States
115 Waddell Road,,Manchester,6040,United States
463 East Rutgers Loop,,Montgomery,36109,United States
31130 Meadowbrook Avenue,,Hayward,94544,United States
8506 Laviento Drive,,Anchorage,99515,United States
19404 North 77th Avenue,,Glendale,85308,United States
302 East Granada Street,,Fayetteville,72703,United States
9321 Amy Lane,,Panama City Beach,32407,United States
1156 Greenhill Road,,Arnold,21012,United States
30 Curtis Road,#509,Milton,2186,United States
904 Shepherd Street Northwest,,Washington,20011,United States
124 Crane Street,,Panama City,32413,United States
15847 West 74th Place,,Arvada,80007,United States
435 Granite Street,,Quincy,2169,United States
4418 Signal Hill Road,,Louisville,40207,United States
2285 Wold Run Drive,#1,Fayetteville,72704,United States
110 Castle Hill,,Manchester,6040,United States
8474 Chase Drive,,Arvada,80003,United States
4074 North Sunflower Circle,,Fayetteville,72703,United States
249 Yellow Leaf Circle,,Anchorage,99504,United States
8010 Holland Court,D,Arvada,80005,United States
1300 East Dowling Road,,Anchorage,99518,United States
189 Danforth Street,,Framingham,1701,United States
1011 Bell Avenue,,Glen Burnie,21060,United States
5224 Wasena Avenue,,Baltimore,21225,United States
7613 Yule Court,,Arvada,80007,United States
1243 Doris Avenue,,Pasadena,21122,United States
3504 East 5th Street,,Panama City,32401,United States
1 Dunsmuir Lane,,Savannah,31411,United States
1320 Dunbarton Road,,Montgomery,36117,United States
14524 Lodestar Drive,,Grass Valley,95949,United States
8404 West Myrtle Avenue,,Glendale,85305,United States
620 Oakland Avenue,,Fayetteville,72701,United States
39 Cottage Street,,Athol,1331,United States
82 Lookout Mountain Drive,,Manchester,6040,United States
1635 Generals Highway,,Annapolis,21401,United States
555 North Dupont Avenue,#C-55,Nashville,37115,United States
2505 North Hampton Court,,Fayetteville,72703,United States
136 Acacia Drive,,Blue Lake,95525,United States
22825 North 74th Lane,,Glendale,85310,United States
643 Farragut Street Northwest,,Washington,20011,United States
17 West 26th Circle,,Fayetteville,72701,United States
335 C Street Southeast,,Washington,20003,United States
1418 Paddocks Court,,Crownsville,21032,United States
2917 Miramar Drive,,Fayetteville,72704,United States
301 Argonaut Street,,Panama City Beach,32413,United States
12901 Mission Circle,,Anchorage,99516,United States
3013 Sprowl Road,#4,Jeffersontown,40299,United States
5929 West Via Montoya Drive,,Glendale,85310,United States
325 Joseph Circle,,Southport,32409,United States
922 Urciolo Court,,Annapolis,21401,United States
2212 Daffin Drive,,Savannah,31404,United States
1401 Cordova Street,#APT 000006,Anchorage,99501,United States
8064 Claytie Circle,,Nashville,37221,United States
566 Middle Turnpike East,,Manchester,6040,United States
93 Hamlin Street,,Manchester,6040,United States
123 Remember Baker Lane,,Hartford,5001,United States
125 Connors Street,#516,Gardner,1440,United States
2315 Chestnut Street,,Montgomery,36107,United States
2716 30th Street Southeast,,Washington,20020,United States
2406 Lindbergh Drive,,Louisville,40208,United States
2035 Ninth Street,R A,Berkeley,94710,United States
34 Holyoke Road,,Manchester,6040,United States
2276 West Woodley Square,,Montgomery,36116,United States
20251 North 75th Avenue,#1046,Glendale,85308,United States
72 Bentley Avenue,,Poultney,5764,United States
2807 Huxley Place,,Fremont,94555,United States
7772 West Palmaire Avenue,,Glendale,85303,United States
82 Linnmore Drive,,Manchester,6040,United States
882 Plantation Way,,Montgomery,36117,United States
8150 North 61st Avenue,#3128,Glendale,85302,United States
503 Orchard Road,,Glen Burnie,21061,United States
3616 Echo Lane,,Nashville,37218,United States
376 Whites Road,,Wilmington,5363,United States
322 East Taylor Street,#1103,Savannah,31401,United States
605 Main Street,,Watertown,2472,United States
238 West Rock Street,#4,Fayetteville,72701,United States
1819 Q Street Southeast,,Washington,20020,United States
1261 Sioux Terrace,,Nashville,37115,United States
7002 Secrest Court,,Arvada,80007,United States
169 Avenida Drive,M,Berkeley,94708,United States
6095 Terry Lane,,Golden,80403,United States
3620 Colmar Drive,,Louisville,40211,United States
8820 Vaughn Road,,Montgomery,36117,United States
113 Hammarlee Road,,Glen Burnie,21060,United States
281 MacArthur Boulevard,,Oakland,94610,United States
8159 West 81st Avenue,,Arvada,80005,United States
512 North Center Avenue,,Panama City,32401,United States
4876 Norris Road,,Fremont,94536,United States
8378 Cole Street,,Arvada,80005,United States
2406 Brighton Drive,,Louisville,40205,United States
19 Heritage,,Oakland,94605,United States
6228 West Larkspur Drive,,Glendale,85304,United States
2504 Longest Avenue,,Louisville,40204,United States
3 Mad Anthony Lane,,Savannah,31411,United States
2248 South Sutherland Drive,,Montgomery,36116,United States
330 Michell Court,,Livermore,94551,United States
6748 West San Juan Avenue,,Glendale,85303,United States
1734 Tamarack Street Northwest,,Washington,20012,United States
915 Arkansas Avenue,,Lynn Haven,32444,United States
116 Queens Lane,,Nashville,37218,United States
8 Linden Circle,,Somerville,2143,United States
4 Chamois Court,,Pooler,31322,United States
6941 West 87th Way,,Arvada,80003,United States
354 North University Avenue,,Fayetteville,72701,United States
6145 East Castro Valley Boulevard,,Castro Valley,94552,United States
1401 Saint George Avenue,,Moore,73160,United States
1713 Arrow Cove Lane,,Annapolis,21401,United States
56 Gardner Street,,Manchester,6040,United States
327 Idlewylde Drive,#3,Louisville,40206,United States
18789 Crane Avenue,,Castro Valley,94546,United States
814 East 10th Court,,Panama City,32401,United States
6431 Shattuck Avenue,B,Oakland,94609,United States
4719 Bayou Bluff Trail,,Lynn Haven,32444,United States
24 Lambert Street,,Medford,2155,United States
1318 35th Street Northwest,,Washington,20007,United States
4807 North Grove Avenue,,Warr Acres,73122,United States
4408 Bonaparte Boulevard,,Midwest City,73110,United States
73 Twin Hills Drive,,Longmeadow,1106,United States
34 Harris Street,#6,Brookline,2446,United States
22352 North 67th Drive,,Glendale,85310,United States
11522 Country Spring Court,,Cupertino,95014,United States
21 Soling Avenue,,Savannah,31419,United States
302 Mcmillin Street,,Nashville,37203,United States
129 Grant Street,,Redlands,92373,United States
3035 South Highway A1A,#3B,Melbourne Beach,32951,United States
1637 Acre Circle,,Panama City Beach,32407,United States
130 West Brown Road,,Mesa,85201,United States
2632 Jackson Street East,,Carson,90810,United States
4503 North Council Road,,Bethany,73008,United States
119 Redwood Road,,Manchester,6040,United States
5721 Frank Hough Road,,Panama City,32404,United States
2917 Danzig Place,#102,Louisville,40245,United States
26563 Chisholm Court,,Hayward,94544,United States
4221 East Mission Boulevard,,Fayetteville,72703,United States
6021 Yarrow Street,#A1,Arvada,80004,United States
7102 North 43rd Avenue,#160,Glendale,85301,United States
3386 Sudlersville South,,Laurel,20724,United States
6022 West Alice Avenue,#3,Glendale,85302,United States
580 Hollow Wood Road,,Montgomery,36109,United States
435 East 5th Avenue,,Anchorage,99501,United States
6713 Holt Road,,Nashville,37211,United States
5605 North Terry Avenue,,Oklahoma City,73111,United States
412 West Ila Street,,Fayetteville,72701,United States
9403 Fairground Road,,Louisville,40291,United States
6049 Quail Street,,Arvada,80004,United States
17 Hillcrest Road,,Rutland,5701,United States
424 Callan Avenue,#216,San Leandro,94577,United States
105 Gilmore Street,,Glen Burnie,21061,United States
910 Arlington Terrace,,Fayetteville,72701,United States
2204 7th Street Road,#12,Louisville,40208,United States
11 North Vineyard Drive,,Pueblo West,81007,United States
3505 Albee Drive,,Nashville,37076,United States
689 Stableway Road,,Pike Road,36064,United States
102 East Cydnee Street,,Fayetteville,72703,United States
208 Towne Lake Way,,Pooler,31322,United States
2555 West 69th Court,,Anchorage,99502,United States
58 Rice Street Southwest,,Washington,20032,United States
2961 Vinson Road,,Montgomery,36110,United States
172 Chestnut Street,,Lynn,1902,United States
307 Meadowood Court,,Lynn Haven,32444,United States
403 Turkey Creek Road,,Mathews,36052,United States
11 Rosewood Lane,,Essex,5452,United States
102 Old Depot Road,#14,Farmington,72730,United States
9 Pierce Road,,Watertown,2472,United States
15254 North 52nd Avenue,,Glendale,85306,United States
11140 West 60th Avenue,,Arvada,80004,United States
803 18th Avenue South,,Nashville,37203,United States
918 Cheryl Ann Circle,,Hayward,94544,United States
1328 Jenks Avenue,,Panama City,32401,United States
2201 Marks Mill Lane,,Fayetteville,72703,United States
12371 Atlanta Highway,,Montgomery,36117,United States
3437 Sommerville Drive,,Montgomery,36111,United States
829 Dunbarton Road,,Montgomery,36117,United States
8 Kozera Avenue,,Hadley,1035,United States
89 High Ledge Circle,,Manchester,6040,United States
35 Lakewood Circle South,,Manchester,6040,United States
2222 Martin Luther King Junior Boulevard,,Fayetteville,72701,United States
1720 Quacco Road,A,Pooler,31322,United States
116 Jourdan Street,,Hinesburg,5461,United States
2507 R Street Southeast,,Washington,20020,United States
4719 West Cochise Drive,,Glendale,85302,United States
1838 Crofton Parkway,,Crofton,21114,United States
26 Seaman Circle,,Manchester,6040,United States
2572 Drake Street,,Montgomery,36108,United States
4231 Miramonte Way,,Union City,94587,United States
2508 Grant Avenue,,Panama City,32405,United States
6505 South Lagoon Drive,,Panama City Beach,32408,United States
2032 Gorgas Street,,Montgomery,36106,United States
1129 I Street,,Anchorage,99501,United States
5201 North Miller Avenue,,Oklahoma City,73112,United States
1987 Boxer Court,,San Lorenzo,94580,United States
3219 Lakeshore Drive,,Nashville,37138,United States
415 West 42nd Street,,Savannah,31401,United States
5792 Owl Hill Avenue,,Santa Rosa,95409,United States
6816 West 84th Circle,#42,Arvada,80003,United States
1900 West Virginia Avenue Northeast,,Washington,20002,United States
2936 State Avenue,,Panama City,32405,United States
2604 13th Street,,Savannah,31408,United States
10304 North 179th Drive,,Waddell,85355,United States
8142 Mallard Shore Drive,,Laurel,20724,United States
653 Stratton Arlington Road,,Stratton,5360,United States
2414 Parker Street,#R 16,Berkeley,94704,United States
43 Westminster Street,,Pittsfield,1201,United States
422 C Street Northeast,,Washington,20002,United States
535 Saddlewood Lane,,Montgomery,36109,United States
7910 West Krall Street,,Glendale,85303,United States
1600 20th Street Northwest,,Washington,20009,United States
1217 Bay Street,#318-A,Tybee Island,31328,United States
7645 Marshall Street,,Arvada,80003,United States
717 Joseph Avenue,,Nashville,37207,United States
2106 Standard Avenue,,Louisville,40210,United States
316 20th Street Northeast,,Washington,20002,United States
227 West Montgomery Cross Road,#736,Savannah,31406,United States
310 12th Avenue,,Santa Cruz,95062,United States
2685 California Street,#APT 305,Mountain View,94040,United States
6460 Vermont 113,,Vershire,5079,United States
8404 South Villa Avenue,,Oklahoma City,73159,United States
7030 West Krall Street,,Glendale,85303,United States
189 Dalton Avenue,,Pittsfield,1201,United States
2455 Manchester Drive,,The Village,73120,United States
2405 230th Street,,Pasadena,21122,United States
589 East Main Street,,Newport,5855,United States
1520 H Street Northwest,,Washington,20006,United States
4603 Grant Street Northeast,,Washington,20019,United States
171 Brickhill Circle,,Pooler,31322,United States
607 North 46th Avenue,,Fayetteville,72704,United States
9134 Brook Park Drive,,Montgomery,36117,United States
2134 West Mills Drive,,Orange,92868,United States
2 Cockle Shell Road,,Savannah,31419,United States
1431 King George Boulevard,#21-C,Savannah,31419,United States
1804 Calhoun Avenue,,Panama City,32405,United States
23 Florida Avenue Northeast,,Washington,20002,United States
5630 Silverado Way,#STE A8,Anchorage,99518,United States
11300 Lillian Lane,,Anchorage,99515,United States
2209 East Manor Drive,,Fayetteville,72701,United States
8325 Northwest 19th Street,,Oklahoma City,73127,United States
6925 Lariat Lane,,Castro Valley,94552,United States
6721 Boundary Run,,Nashville,37221,United States
1700 William E Summers III Avenue,#201,Louisville,40211,United States
14 6th Street,#1,Medford,2155,United States
11865 West 74th Avenue,,Arvada,80005,United States
912 Countryside Lane,,Montgomery,36117,United States
6080 Frontier Lane,,Nashville,37211,United States
1124 Bluewillow Court,,Nashville,37013,United States
17722 North 79th Avenue,#1135,Glendale,85308,United States
6 Oak Street,,Town of Rockingham,5101,United States
1537 Northwest 123rd Street,,Oklahoma City,73120,United States
10001 Pheasant Lane,,Oklahoma City,73162,United States
10340 West 62nd Place,,Arvada,80004,United States
52 Oleary Drive,,Manchester,6040,United States
15082 North 59th Avenue,#111,Glendale,85306,United States
7047 Vinson Road,,Panama City,32413,United States
200 Edson Road,,Windham,5359,United States
150 Manistee Drive,,Panama City Beach,32413,United States
2335 Orchard View Lane,,Escondido,92027,United States
65 Clark Street,#2,Newton,2459,United States
18318 Pioneer Drive,,Anchorage,99577,United States
110 Elmwood Avenue,,Barre,5641,United States
4800 Huffman Road,,Anchorage,99516,United States
8219 Minor Lane,#9,Louisville,40219,United States
10129 Spring Gate Drive,,Louisville,40241,United States
65 Arcellia Drive,,Manchester,6042,United States
12460 West Solano Drive,,Litchfield Park,85340,United States
618 Watts Street,,Montgomery,36104,United States
5805 Armada Drive,,Carlsbad,92008,United States
1644 Queenstown Road,,Nichols Hills,73116,United States
143 Main Street,,Manchester,6042,United States
226 Tranquility Lane,,Saint Albans Town,5488,United States
831 21st Street Northeast,,Washington,20002,United States
22825 Paseo Place,,Hayward,94541,United States
2902 Flint Street,,Union City,94587,United States
919 Windsor Avenue,,Annapolis,21403,United States
6041 North 72nd Lane,,Glendale,85303,United States
163 Highwood Drive,,Manchester,6040,United States
1334 East 14th Avenue,#APT 000004,Anchorage,99501,United States
223 Goose Pond Road,,Fairfax,5454,United States
1021 North Center Avenue,,Panama City,32401,United States
1559 Alabama Avenue Southeast,,Washington,20032,United States
1238 Roanwood Way,,Concord,94521,United States
2068 Happy Lane,,Crofton,21114,United States
5378 Allison Street,#102,Arvada,80002,United States
4604 Virginia Loop Road,,Montgomery,36116,United States
7711 North 51st Avenue,#1180,Glendale,85301,United States
343 Daman Drive,,Montgomery,36108,United States
3623 Chateau Lane,,Louisville,40219,United States
2619 North Quality Lane,#315,Fayetteville,72703,United States
5334 West Northern Avenue,#327,Glendale,85301,United States
3835 Oakes Drive,,Hayward,94542,United States
295 Townes Drive,,Nashville,37211,United States
125 13th Street Northeast,,Washington,20002,United States
7308 Northwest 119th Street,,Oklahoma City,73162,United States
1911 East 58th Avenue,,Anchorage,99507,United States
22649 McManus Drive,,Anchorage,99567,United States
4617 East 3rd Street,,Panama City,32404,United States
6436 Stoney Point Road,,Panama City,32404,United States
2577 Rhode Island Avenue Northeast,,Washington,20018,United States
44 Campfield Road,,Manchester,6040,United States
7132 South Villa Avenue,,Oklahoma City,73159,United States
107 West Canton Circle,,Springfield,1104,United States
14358 West 88th Place,C,Arvada,80005,United States
2100 Sandy Creek Trail,,Edmond,73013,United States
6404 West 82nd Drive,,Arvada,80003,United States
1609 Porter Avenue,,Nashville,37206,United States
8421 Thomas Drive,#4,Panama City,32408,United States
116 Frost Park,,Hartford,5001,United States
132 Tensaw Road,,Montgomery,36117,United States
3147 West Old Farmington Road,,Fayetteville,72704,United States
3538 Mendenhall Court,,Pleasanton,94588,United States
1623 Mines Road,,Lowell,5847,United States
99 Pond Avenue,#606,Brookline,2445,United States
557 West Willoughby Road,,Fayetteville,72701,United States
309 Brooke Court,,Panama City,32404,United States
4696 Bull Run Road,,Ashland City,37015,United States
18330 North 79th Avenue,#3155,Glendale,85308,United States
5601 West Missouri Avenue,#165,Glendale,85301,United States
2903 West 31st Avenue,#APT 000002,Anchorage,99517,United States
2611 Bluefield Avenue,,Nashville,37214,United States
203 East Gwinnett Street,,Savannah,31401,United States
3517 S Street Northwest,,Washington,20007,United States
1123 Ardee Avenue,,Nashville,37216,United States
3811 W Street Southeast,,Washington,20020,United States
2130 Loren Circle,,Fayetteville,72701,United States
4 Orchard Street,,Manchester,6040,United States
4755 Coventry Road,,Montgomery,36116,United States
1806 Boscobel Street,,Nashville,37206,United States
7034 West John Garrison Road,,Fayetteville,72704,United States
233 Juniper Drive,,South Burlington,5403,United States
1831 Frankford Avenue,,Panama City,32405,United States
4924 West 65th Avenue,,Arvada,80003,United States
7095 Gladiola Street,,Arvada,80004,United States
7564 Moore Court,,Arvada,80005,United States
8442 Everett Way,A,Arvada,80005,United States
1330 West 82nd Avenue,,Anchorage,99518,United States
4907 Roger Drive,,Anchorage,99507,United States
123 Blossom Road,,Westport,2790,United States
915 Hargrove Street,,Ardmore,73401,United States
1983 Reidsville Street,,Annapolis,21401,United States
12403 Deerfield Road,,Savannah,31419,United States
1011 Devon Drive,,Hayward,94542,United States
5222 West Laurie Lane,,Glendale,85302,United States
35 Pilgrim Lane,,Manchester,6040,United States
2728 Hale Avenue,,Louisville,40211,United States
65 Lowry Road,,Falmouth,2540,United States
302 Depot Road,,Boxborough,1719,United States
1402 Maggies Way,,Waterbury Center,5677,United States
81 Lyness Street,,Manchester,6040,United States
6518 Dolphin Court,,Glen Burnie,21061,United States
1842 West Park Place,,Oklahoma City,73106,United States
1 Pond View Road,,Proctor,5765,United States
1340 5th Street Northwest,,Washington,20001,United States
6000 Parker Drive,,Deale,20751,United States
822 Bowden Street,,Savannah,31415,United States
1710 East Harold Street,,Fayetteville,72703,United States
1518 Jenks Avenue,,Panama City,32405,United States
814 South Pickard Avenue,,Norman,73069,United States
100 Fenwick Village Drive,,Savannah,31419,United States
218 Middle Street,,Brighton,5846,United States
5470 Atlanta Highway,,Montgomery,36109,United States
43 Main Street,,Essex,5452,United States
804 East 7th Court,,Panama City,32401,United States
1709 Queensbury Road,,Moore,73160,United States
646 Clinton Street,,Montgomery,36108,United States
708 Pine Drift Drive,,Odenton,21113,United States
5104 West Tierra Buena Lane,,Glendale,85306,United States
1234 Carmel Street,,Madera,93638,United States
1753 Zion Road,#E33,Fayetteville,72703,United States
22538 6th Street,,Hayward,94541,United States
415 Lullwater Drive,,Panama City Beach,32413,United States
219 Bidwell Street,,Manchester,6040,United States
4500 Margalo Avenue,,Bakersfield,93313,United States
8380 West 67th Avenue,,Arvada,80004,United States
2334 Nantucket Drive,,Crofton,21114,United States
720 East Muhammad Ali Boulevard,,Louisville,40202,United States
12022 Town Park Circle,,Anchorage,99577,United States
2305 Ranchland Drive,,Savannah,31404,United States
1656 Newton Street Northwest,,Washington,20010,United States
91 85th Avenue,,Fayetteville,72704,United States
228 Central Street,,Milford,1757,United States
20 Masters Way,,Manchester,6040,United States
5396 North Reese Avenue,,Fresno,93722,United States
28 Wilfred Road,,Manchester,6040,United States
200 Pheasant Avenue,#103,Louisville,40118,United States
1650 Garland Avenue,,Fayetteville,72703,United States
4600 Ritchie Highway,,Baltimore,21225,United States
733 East DeRenne Avenue,,Savannah,31405,United States
8349 West Stella Way,,Glendale,85305,United States
33 Pond Avenue,#804,Brookline,2445,United States
9 Kimball Court,#107,Burlington,1803,United States
2433 Southwest 36th Street,,Oklahoma City,73109,United States
4607 Artelia Drive,,Nashville,37013,United States
212 Ambleside Drive,,Severna Park,21146,United States
8757 Lamar Circle,,Arvada,80003,United States
130 Carolina Cherry Circle,,Pooler,31322,United States
7804 Abercorn Street,#11,Savannah,31406,United States
12870 Old Seward Highway,#STE 000105,Anchorage,99515,United States
8133 Meadowgreen Place,,Louisville,40299,United States
5 Meadow Lane,,Rutland,5701,United States
562 South Pierremont Drive,,Fayetteville,72701,United States
1219 Carleton Street,M,Berkeley,94702,United States
1403 Boulder Court,,Hanover,21076,United States
122 Coral Drive,,Panama City Beach,32413,United States
1404 James Way,,Edgewater,21037,United States
4300 Woodley Square,,Montgomery,36116,United States
422 Richmond Street,,El Cerrito,94530,United States
222 Plymouth Street,A,Middleborough,2346,United States
451 East Street,,Huntington,5462,United States
9209 Eupora Court,,Jeffersontown,40299,United States
4 Conti Circle,,Barre,5641,United States
5264 Shafter Avenue,,Oakland,94618,United States
1630 Eton Way,,Crofton,21114,United States
5244 West Port Au Prince Lane,,Glendale,85306,United States
1835 Pointer Lane,,Fayetteville,72701,United States
107 Laurel Green Court,,Savannah,31419,United States
7250 Urban Drive,,Arvada,80005,United States
12 Kane Road,,Manchester,6040,United States
4132 Northwest 57th Street,,Oklahoma City,73112,United States
10774 West 54th Lane,,Arvada,80002,United States
6729 North 54th Avenue,,Glendale,85301,United States
6483 West 76th Avenue,,Arvada,80003,United States
5732 Jean Drive,,Union City,94587,United States
8221 Surf Drive,,Panama City,32408,United States
9101 Vanguard Drive,,Anchorage,99507,United States
18713 Shilstone Way,,Edmond,73012,United States
51185 Helmsman Street,,Kenai,99611,United States
128 East Oak Street,#3,Louisville,40203,United States
1222 Arcade Boulevard,,Sacramento,95815,United States
1405 Mercedes Avenue,APARTMENT G,Panama City,32401,United States
7024 Johnny Mercer Boulevard,,Savannah,31410,United States
3600 Pennsylvania Avenue,#APT 6,Fremont,94536,United States
312 North Cove Boulevard,,Panama City,32401,United States
3118 Sora Avenue,,Louisville,40213,United States
6420 Via Baron,,Rancho Palos Verdes,90275,United States
3321 Furman Boulevard,,Louisville,40220,United States
98 Lincoln Street,,Revere,2151,United States
984 Greendale Avenue,,Needham,2492,United States
239 Eastern Avenue,,Fayetteville,72701,United States
1106 Commanders Way South,,Annapolis,21409,United States
4927 Alvin Sperry Road,,Mount Juliet,37122,United States
1632 North Lunsford Avenue,,Fayetteville,72701,United States
2349 East Tall Oaks Drive,,Fayetteville,72703,United States
2036 Hermitage Hills Drive,,Gambrills,21054,United States
119 Oakland Street,,Manchester,6042,United States
37675 Fremont Boulevard,#APT 42,Fremont,94536,United States
3104 Southwest 46th Street,,Oklahoma City,73119,United States
2036 Gorgas Street,,Montgomery,36106,United States
11102 Little Rock Court,,Louisville,40241,United States
46 Deslauriers Street,,Chicopee,1020,United States
12 Red Fox Drive,,Savannah,31419,United States
503 Blackwood Terrace Southeast,,Calhoun,30701,United States
2223 North Fernwood Court,,Savannah,31404,United States
5444 Nicole Boulevard,,Panama City,32404,United States
849 East Victoria Street,#204,Carson,90746,United States
445 South Potomac Circle,,Aurora,80012,United States
201 East 9th Avenue,#APT 000102,Anchorage,99501,United States
3500 15th Street Northeast,,Washington,20017,United States
4981 Shirley Way,,Livermore,94550,United States
1300 Lemos Lane,,Fremont,94539,United States
5000 V Street Northwest,,Washington,20007,United States
6823 Forsythe Drive,,Panama City,32404,United States
1522 South 36th Street,,Louisville,40211,United States
313 Lone Oak Drive,,Norman,73071,United States
970 Old Oak Road,,Livermore,94550,United States
1653 Brooks Avenue,,Fayetteville,72701,United States
441 Merritt Avenue,,Oakland,94610,United States
632 North Pine Street,,Anchorage,99508,United States
